ORBCOMM FM103           
1 40091U 14040F   24284.84606991  .00007260  00000+0  16267-2 0  9994
2 40091  47.0034 114.6070 0002563 222.9388 137.1297 14.57220772527723
ORBCOMM FM114           
1 41179U 15081A   24284.39575841  .00005145  00000+0  11644-2 0  9991
2 41179  47.0030  25.9287 0003164 277.8176  82.2350 14.57202032468029
ORBCOMM FM119           
1 41180U 15081B   24284.44029346  .00003847  00000+0  88054-3 0  9990
2 41180  46.9999 294.9473 0001921 324.5510  35.5247 14.57188252469281
ORBCOMM FM105           
1 41181U 15081C   24284.68209728  .00002058  00000+0  63294-3 0  9993
2 41181  47.0006 274.8704 0002620 283.4780  76.5808 14.44718515464668
ORBCOMM FM110           
1 41182U 15081D   24284.57773853  .00004930  00000+0  11178-2 0  9991
2 41182  47.0026  24.4558 0000314  41.1910 318.8998 14.57188021468101
ORBCOMM FM118           
1 41183U 15081E   24284.62437528  .00005225  00000+0  11822-2 0  9998
2 41183  47.0046  24.5809 0000581  78.8844 281.2106 14.57197400468030
ORBCOMM FM112           
1 41184U 15081F   24284.76068639  .00003593  00000+0  82501-3 0  9996
2 41184  46.9982 292.6337 0002424 315.3038  44.7651 14.57180245469277
ORBCOMM FM113           
1 41185U 15081G   24284.73776149  .00003376  00000+0  77758-3 0  9993
2 41185  46.9999 293.0314 0002032 329.0829  30.9936 14.57166398469255
