<?xml version="1.0" encoding="UTF-8"?>
<ndm xmlns:xsi="http://www.w3.org/2001/XMLSchema-instance" xsi:noNamespaceSchemaLocation="https://sanaregistry.org/r/ndmxml_unqualified/ndmxml-2.0.0-master-2.0.xsd">
<omm id="CCSDS_OMM_VERS" version="2.0">
<header><CREATION_DATE/><ORIGINATOR/></header><body><segment><metadata><OBJECT_NAME>ORBCOMM FM103</OBJECT_NAME><OBJECT_ID>2014-040F</OBJECT_ID><CENTER_NAME>EARTH</CENTER_NAME><REF_FRAME>TEME</REF_FRAME><TIME_SYSTEM>UTC</TIME_SYSTEM><MEAN_ELEMENT_THEORY>SGP4</MEAN_ELEMENT_THEORY></metadata><data><meanElements><EPOCH>2024-10-10T20:18:20.440224</EPOCH><MEAN_MOTION>14.57220772</MEAN_MOTION><ECCENTRICITY>.0002563</ECCENTRICITY><INCLINATION>47.0034</INCLINATION><RA_OF_ASC_NODE>114.6070</RA_OF_ASC_NODE><ARG_OF_PERICENTER>222.9388</ARG_OF_PERICENTER><MEAN_ANOMALY>137.1297</MEAN_ANOMALY></meanElements><tleParameters><EPHEMERIS_TYPE>0</EPHEMERIS_TYPE><CLASSIFICATION_TYPE>U</CLASSIFICATION_TYPE><NORAD_CAT_ID>40091</NORAD_CAT_ID><ELEMENT_SET_NO>999</ELEMENT_SET_NO><REV_AT_EPOCH>52772</REV_AT_EPOCH><BSTAR>.16267E-2</BSTAR><MEAN_MOTION_DOT>.726E-4</MEAN_MOTION_DOT><MEAN_MOTION_DDOT>0</MEAN_MOTION_DDOT></tleParameters></data></segment></body></omm>
<omm id="CCSDS_OMM_VERS" version="2.0">
<header><CREATION_DATE/><ORIGINATOR/></header><body><segment><metadata><OBJECT_NAME>ORBCOMM FM114</OBJECT_NAME><OBJECT_ID>2015-081A</OBJECT_ID><CENTER_NAME>EARTH</CENTER_NAME><REF_FRAME>TEME</REF_FRAME><TIME_SYSTEM>UTC</TIME_SYSTEM><MEAN_ELEMENT_THEORY>SGP4</MEAN_ELEMENT_THEORY></metadata><data><meanElements><EPOCH>2024-10-10T09:29:53.526624</EPOCH><MEAN_MOTION>14.57202032</MEAN_MOTION><ECCENTRICITY>.0003164</ECCENTRICITY><INCLINATION>47.0030</INCLINATION><RA_OF_ASC_NODE>25.9287</RA_OF_ASC_NODE><ARG_OF_PERICENTER>277.8176</ARG_OF_PERICENTER><MEAN_ANOMALY>82.2350</MEAN_ANOMALY></meanElements><tleParameters><EPHEMERIS_TYPE>0</EPHEMERIS_TYPE><CLASSIFICATION_TYPE>U</CLASSIFICATION_TYPE><NORAD_CAT_ID>41179</NORAD_CAT_ID><ELEMENT_SET_NO>999</ELEMENT_SET_NO><REV_AT_EPOCH>46802</REV_AT_EPOCH><BSTAR>.11644E-2</BSTAR><MEAN_MOTION_DOT>.5145E-4</MEAN_MOTION_DOT><MEAN_MOTION_DDOT>0</MEAN_MOTION_DDOT></tleParameters></data></segment></body></omm>
<omm id="CCSDS_OMM_VERS" version="2.0">
<header><CREATION_DATE/><ORIGINATOR/></header><body><segment><metadata><OBJECT_NAME>ORBCOMM FM119</OBJECT_NAME><OBJECT_ID>2015-081B</OBJECT_ID><CENTER_NAME>EARTH</CENTER_NAME><REF_FRAME>TEME</REF_FRAME><TIME_SYSTEM>UTC</TIME_SYSTEM><MEAN_ELEMENT_THEORY>SGP4</MEAN_ELEMENT_THEORY></metadata><data><meanElements><EPOCH>2024-10-10T10:34:01.354944</EPOCH><MEAN_MOTION>14.57188252</MEAN_MOTION><ECCENTRICITY>.0001921</ECCENTRICITY><INCLINATION>46.9999</INCLINATION><RA_OF_ASC_NODE>294.9473</RA_OF_ASC_NODE><ARG_OF_PERICENTER>324.5510</ARG_OF_PERICENTER><MEAN_ANOMALY>35.5247</MEAN_ANOMALY></meanElements><tleParameters><EPHEMERIS_TYPE>0</EPHEMERIS_TYPE><CLASSIFICATION_TYPE>U</CLASSIFICATION_TYPE><NORAD_CAT_ID>41180</NORAD_CAT_ID><ELEMENT_SET_NO>999</ELEMENT_SET_NO><REV_AT_EPOCH>46928</REV_AT_EPOCH><BSTAR>.88054E-3</BSTAR><MEAN_MOTION_DOT>.3847E-4</MEAN_MOTION_DOT><MEAN_MOTION_DDOT>0</MEAN_MOTION_DDOT></tleParameters></data></segment></body></omm>
<omm id="CCSDS_OMM_VERS" version="2.0">
<header><CREATION_DATE/><ORIGINATOR/></header><body><segment><metadata><OBJECT_NAME>ORBCOMM FM105</OBJECT_NAME><OBJECT_ID>2015-081C</OBJECT_ID><CENTER_NAME>EARTH</CENTER_NAME><REF_FRAME>TEME</REF_FRAME><TIME_SYSTEM>UTC</TIME_SYSTEM><MEAN_ELEMENT_THEORY>SGP4</MEAN_ELEMENT_THEORY></metadata><data><meanElements><EPOCH>2024-10-10T16:22:13.204992</EPOCH><MEAN_MOTION>14.44718515</MEAN_MOTION><ECCENTRICITY>.000262</ECCENTRICITY><INCLINATION>47.0006</INCLINATION><RA_OF_ASC_NODE>274.8704</RA_OF_ASC_NODE><ARG_OF_PERICENTER>283.4780</ARG_OF_PERICENTER><MEAN_ANOMALY>76.5808</MEAN_ANOMALY></meanElements><tleParameters><EPHEMERIS_TYPE>0</EPHEMERIS_TYPE><CLASSIFICATION_TYPE>U</CLASSIFICATION_TYPE><NORAD_CAT_ID>41181</NORAD_CAT_ID><ELEMENT_SET_NO>999</ELEMENT_SET_NO><REV_AT_EPOCH>46466</REV_AT_EPOCH><BSTAR>.63294E-3</BSTAR><MEAN_MOTION_DOT>.2058E-4</MEAN_MOTION_DOT><MEAN_MOTION_DDOT>0</MEAN_MOTION_DDOT></tleParameters></data></segment></body></omm>
<omm id="CCSDS_OMM_VERS" version="2.0">
<header><CREATION_DATE/><ORIGINATOR/></header><body><segment><metadata><OBJECT_NAME>ORBCOMM FM110</OBJECT_NAME><OBJECT_ID>2015-081D</OBJECT_ID><CENTER_NAME>EARTH</CENTER_NAME><REF_FRAME>TEME</REF_FRAME><TIME_SYSTEM>UTC</TIME_SYSTEM><MEAN_ELEMENT_THEORY>SGP4</MEAN_ELEMENT_THEORY></metadata><data><meanElements><EPOCH>2024-10-10T13:51:56.608992</EPOCH><MEAN_MOTION>14.57188021</MEAN_MOTION><ECCENTRICITY>.0000314</ECCENTRICITY><INCLINATION>47.0026</INCLINATION><RA_OF_ASC_NODE>24.4558</RA_OF_ASC_NODE><ARG_OF_PERICENTER>41.1910</ARG_OF_PERICENTER><MEAN_ANOMALY>318.8998</MEAN_ANOMALY></meanElements><tleParameters><EPHEMERIS_TYPE>0</EPHEMERIS_TYPE><CLASSIFICATION_TYPE>U</CLASSIFICATION_TYPE><NORAD_CAT_ID>41182</NORAD_CAT_ID><ELEMENT_SET_NO>999</ELEMENT_SET_NO><REV_AT_EPOCH>46810</REV_AT_EPOCH><BSTAR>.11178E-2</BSTAR><MEAN_MOTION_DOT>.493E-4</MEAN_MOTION_DOT><MEAN_MOTION_DDOT>0</MEAN_MOTION_DDOT></tleParameters></data></segment></body></omm>
<omm id="CCSDS_OMM_VERS" version="2.0">
<header><CREATION_DATE/><ORIGINATOR/></header><body><segment><metadata><OBJECT_NAME>ORBCOMM FM118</OBJECT_NAME><OBJECT_ID>2015-081E</OBJECT_ID><CENTER_NAME>EARTH</CENTER_NAME><REF_FRAME>TEME</REF_FRAME><TIME_SYSTEM>UTC</TIME_SYSTEM><MEAN_ELEMENT_THEORY>SGP4</MEAN_ELEMENT_THEORY></metadata><data><meanElements><EPOCH>2024-10-10T14:59:06.024192</EPOCH><MEAN_MOTION>14.57197400</MEAN_MOTION><ECCENTRICITY>.0000581</ECCENTRICITY><INCLINATION>47.0046</INCLINATION><RA_OF_ASC_NODE>24.5809</RA_OF_ASC_NODE><ARG_OF_PERICENTER>78.8844</ARG_OF_PERICENTER><MEAN_ANOMALY>281.2106</MEAN_ANOMALY></meanElements><tleParameters><EPHEMERIS_TYPE>0</EPHEMERIS_TYPE><CLASSIFICATION_TYPE>U</CLASSIFICATION_TYPE><NORAD_CAT_ID>41183</NORAD_CAT_ID><ELEMENT_SET_NO>999</ELEMENT_SET_NO><REV_AT_EPOCH>46803</REV_AT_EPOCH><BSTAR>.11822E-2</BSTAR><MEAN_MOTION_DOT>.5225E-4</MEAN_MOTION_DOT><MEAN_MOTION_DDOT>0</MEAN_MOTION_DDOT></tleParameters></data></segment></body></omm>
<omm id="CCSDS_OMM_VERS" version="2.0">
<header><CREATION_DATE/><ORIGINATOR/></header><body><segment><metadata><OBJECT_NAME>ORBCOMM FM112</OBJECT_NAME><OBJECT_ID>2015-081F</OBJECT_ID><CENTER_NAME>EARTH</CENTER_NAME><REF_FRAME>TEME</REF_FRAME><TIME_SYSTEM>UTC</TIME_SYSTEM><MEAN_ELEMENT_THEORY>SGP4</MEAN_ELEMENT_THEORY></metadata><data><meanElements><EPOCH>2024-10-10T18:15:23.304096</EPOCH><MEAN_MOTION>14.57180245</MEAN_MOTION><ECCENTRICITY>.0002424</ECCENTRICITY><INCLINATION>46.9982</INCLINATION><RA_OF_ASC_NODE>292.6337</RA_OF_ASC_NODE><ARG_OF_PERICENTER>315.3038</ARG_OF_PERICENTER><MEAN_ANOMALY>44.7651</MEAN_ANOMALY></meanElements><tleParameters><EPHEMERIS_TYPE>0</EPHEMERIS_TYPE><CLASSIFICATION_TYPE>U</CLASSIFICATION_TYPE><NORAD_CAT_ID>41184</NORAD_CAT_ID><ELEMENT_SET_NO>999</ELEMENT_SET_NO><REV_AT_EPOCH>46927</REV_AT_EPOCH><BSTAR>.82501E-3</BSTAR><MEAN_MOTION_DOT>.3593E-4</MEAN_MOTION_DOT><MEAN_MOTION_DDOT>0</MEAN_MOTION_DDOT></tleParameters></data></segment></body></omm>
<omm id="CCSDS_OMM_VERS" version="2.0">
<header><CREATION_DATE/><ORIGINATOR/></header><body><segment><metadata><OBJECT_NAME>ORBCOMM FM113</OBJECT_NAME><OBJECT_ID>2015-081G</OBJECT_ID><CENTER_NAME>EARTH</CENTER_NAME><REF_FRAME>TEME</REF_FRAME><TIME_SYSTEM>UTC</TIME_SYSTEM><MEAN_ELEMENT_THEORY>SGP4</MEAN_ELEMENT_THEORY></metadata><data><meanElements><EPOCH>2024-10-10T17:42:22.592736</EPOCH><MEAN_MOTION>14.57166398</MEAN_MOTION><ECCENTRICITY>.0002032</ECCENTRICITY><INCLINATION>46.9999</INCLINATION><RA_OF_ASC_NODE>293.0314</RA_OF_ASC_NODE><ARG_OF_PERICENTER>329.0829</ARG_OF_PERICENTER><MEAN_ANOMALY>30.9936</MEAN_ANOMALY></meanElements><tleParameters><EPHEMERIS_TYPE>0</EPHEMERIS_TYPE><CLASSIFICATION_TYPE>U</CLASSIFICATION_TYPE><NORAD_CAT_ID>41185</NORAD_CAT_ID><ELEMENT_SET_NO>999</ELEMENT_SET_NO><REV_AT_EPOCH>46925</REV_AT_EPOCH><BSTAR>.77758E-3</BSTAR><MEAN_MOTION_DOT>.3376E-4</MEAN_MOTION_DOT><MEAN_MOTION_DDOT>0</MEAN_MOTION_DDOT></tleParameters></data></segment></body></omm>

</ndm>
